{
  "type": "FeatureCollection",
  "name": "mobility_hubs_preflight",
  "crs_note": "GeoJSON geometry is WGS84; source and model coordinates are properties",
  "features": [
    {"type":"Feature","properties":{"rank":null,"size":"not_selected","eligible":false,"mp_id":"10","name":"Westenriederstraße","address":"Westenriederstraße 39-51","epsg25832_easting":691908.739,"epsg25832_northing":5334527.046,"epsg31468_x":4468808.336,"epsg31468_y":5333085.001,"nearest_stop_distance_m":284.1,"distinct_line_count":0,"route_count":0,"matsim_modes":"","confidence":"low","unresolved_issue":"no MATSim stops within 150 m; fewer than two MATSim lines within 150 m; LHM s_bahn=Ja vs MATSim rail proxy=false"},"geometry":{"type":"Point","coordinates":[11.57949098,48.13503414]}},
    {"type":"Feature","properties":{"rank":55,"size":"eligible_not_shortlisted","eligible":true,"mp_id":"41","name":"Truderinger Straße","address":"Truderinger Straße / Schmuckerweg","epsg25832_easting":698802.262,"epsg25832_northing":5333261.883,"epsg31468_x":4475646.889,"epsg31468_y":5331552.129,"nearest_stop_distance_m":25.7,"distinct_line_count":4,"route_count":38,"matsim_modes":"bus","confidence":"medium","unresolved_issue":"embedded line break in name"},"geometry":{"type":"Point","coordinates":[11.67145561,48.12154791]}},
    {"type":"Feature","properties":{"rank":null,"size":"not_selected","eligible":false,"mp_id":"303","name":"Königinstraße","address":"Königinstraße 37","epsg25832_easting":692223.658,"epsg25832_northing":5336197.452,"epsg31468_x":4469188.138,"epsg31468_y":5334741.788,"nearest_stop_distance_m":251.1,"distinct_line_count":0,"route_count":0,"matsim_modes":"","confidence":"low","unresolved_issue":"no MATSim stops within 150 m; fewer than two MATSim lines within 150 m"},"geometry":{"type":"Point","coordinates":[11.58447345,48.14995237]}},
    {"type":"Feature","properties":{"rank":70,"size":"eligible_not_shortlisted","eligible":true,"mp_id":"9","name":"St. Jakobs-Platz","address":"St.-Jakobs-Platz 12","epsg25832_easting":691437.534,"epsg25832_northing":5334377.065,"epsg31468_x":4468331.66,"epsg31468_y":5332953.512,"nearest_stop_distance_m":92.9,"distinct_line_count":2,"route_count":18,"matsim_modes":"bus","confidence":"medium","unresolved_issue":"embedded line break in name"},"geometry":{"type":"Point","coordinates":[11.57309664,48.13382804]}},
    {"type":"Feature","properties":{"rank":43,"size":"eligible_not_shortlisted","eligible":true,"mp_id":"204","name":"Ickstattstraße","address":"Ickstattstraße 4","epsg25832_easting":691228.035,"epsg25832_northing":5333961.708,"epsg31468_x":4468106.134,"epsg31468_y":5332546.654,"nearest_stop_distance_m":136.4,"distinct_line_count":6,"route_count":17,"matsim_modes":"tram","confidence":"medium","unresolved_issue":"LHM tram=Nein vs MATSim tram=true"},"geometry":{"type":"Point","coordinates":[11.57009730,48.13015783]}},
    {"type":"Feature","properties":{"rank":6,"size":"medium","eligible":true,"mp_id":"49","name":"Giesinger Bahnhof","address":"Giesinger Bahnhofsplatz","epsg25832_easting":693156.138,"epsg25832_northing":5331870.812,"epsg31468_x":4469951.187,"epsg31468_y":5330382.275,"nearest_stop_distance_m":23.1,"distinct_line_count":17,"route_count":186,"matsim_modes":"bus;rail;subway;tram","confidence":"high","unresolved_issue":"none"},"geometry":{"type":"Point","coordinates":[11.59503621,48.11078320]}},
    {"type":"Feature","properties":{"rank":19,"size":"alternative","eligible":true,"mp_id":"1905","name":"Fürstenried West","address":"Schweizer Platz 2 / Graubündener Straße 9","epsg25832_easting":684717.908,"epsg25832_northing":5329113.052,"epsg31468_x":4461412.1,"epsg31468_y":5327955.497,"nearest_stop_distance_m":15.2,"distinct_line_count":10,"route_count":88,"matsim_modes":"bus;subway","confidence":"high","unresolved_issue":"none"},"geometry":{"type":"Point","coordinates":[11.48058852,48.08849797]}},
    {"type":"Feature","properties":{"rank":16,"size":"alternative","eligible":true,"mp_id":"14","name":"Kidlerplatz","address":"Kidlerplatz 8, 58 Kidlerplatz 8, 58","epsg25832_easting":689153.082,"epsg25832_northing":5332426.969,"epsg31468_x":4465972.993,"epsg31468_y":5331094.016,"nearest_stop_distance_m":102.7,"distinct_line_count":11,"route_count":37,"matsim_modes":"bus","confidence":"medium","unresolved_issue":"embedded line break in address; LHM u_bahn=Ja vs MATSim subway=false"},"geometry":{"type":"Point","coordinates":[11.54155760,48.11698340]}},
    {"type":"Feature","properties":{"rank":null,"size":"not_selected","eligible":false,"mp_id":"2004","name":"Lorettoplatz","address":"Waldsruhe 1","epsg25832_easting":685253.218,"epsg25832_northing":5330870.652,"epsg31468_x":4462015.49,"epsg31468_y":5329690.9,"nearest_stop_distance_m":39.8,"distinct_line_count":1,"route_count":12,"matsim_modes":"bus","confidence":"low","unresolved_issue":"fewer than two MATSim lines within 150 m"},"geometry":{"type":"Point","coordinates":[11.48853293,48.10414089]}},
    {"type":"Feature","properties":{"rank":11,"size":"small","eligible":true,"mp_id":"27","name":"Rotkreuzplatz","address":"Winthirstraße 2","epsg25832_easting":688335.464,"epsg25832_northing":5336403.908,"epsg31468_x":4465311.075,"epsg31468_y":5335099.719,"nearest_stop_distance_m":13.6,"distinct_line_count":13,"route_count":83,"matsim_modes":"bus;subway;tram","confidence":"high","unresolved_issue":"none"},"geometry":{"type":"Point","coordinates":[11.53234102,48.15297118]}},
    {"type":"Feature","properties":{"rank":67,"size":"eligible_not_shortlisted","eligible":true,"mp_id":"47","name":"Quiddestraße","address":"Siegfried-Mollier-Straße","epsg25832_easting":697008.686,"epsg25832_northing":5331563.971,"epsg31468_x":4473788.628,"epsg31468_y":5329925.538,"nearest_stop_distance_m":22.4,"distinct_line_count":3,"route_count":25,"matsim_modes":"bus","confidence":"medium","unresolved_issue":"LHM u_bahn=Ja vs MATSim subway=false"},"geometry":{"type":"Point","coordinates":[11.64659646,48.10684559]}},
    {"type":"Feature","properties":{"rank":null,"size":"not_selected","eligible":false,"mp_id":"410","name":"Mildred-Scheel-Bogen","address":"Isoldenstraße 41","epsg25832_easting":691915.206,"epsg25832_northing":5339049.708,"epsg31468_x":4468991.19,"epsg31468_y":5337603.788,"nearest_stop_distance_m":42.5,"distinct_line_count":1,"route_count":4,"matsim_modes":"bus","confidence":"low","unresolved_issue":"fewer than two MATSim lines within 150 m"},"geometry":{"type":"Point","coordinates":[11.58161753,48.17568100]}},
    {"type":"Feature","properties":{"rank":null,"size":"not_selected","eligible":false,"mp_id":"306","name":"Hochschule München","address":"Lothstraße 64","epsg25832_easting":690080.99,"epsg25832_northing":5336721.557,"epsg31468_x":4467067.617,"epsg31468_y":5335349.04,"nearest_stop_distance_m":129.3,"distinct_line_count":1,"route_count":11,"matsim_modes":"bus","confidence":"low","unresolved_issue":"fewer than two MATSim lines within 150 m; LHM tram=Ja vs MATSim tram=false"},"geometry":{"type":"Point","coordinates":[11.55592896,48.15530693]}},
    {"type":"Feature","properties":{"rank":24,"size":"eligible_not_shortlisted","eligible":true,"mp_id":"21","name":"Heimeranplatz","address":"Trappentreustraße 46 - 48","epsg25832_easting":688514.795,"epsg25832_northing":5334270.849,"epsg31468_x":4465407.088,"epsg31468_y":5332961.334,"nearest_stop_distance_m":13.3,"distinct_line_count":8,"route_count":45,"matsim_modes":"bus;subway","confidence":"medium","unresolved_issue":"LHM s_bahn=Ja vs MATSim rail proxy=false"},"geometry":{"type":"Point","coordinates":[11.53380549,48.13374580]}},
    {"type":"Feature","properties":{"rank":26,"size":"eligible_not_shortlisted","eligible":true,"mp_id":"208","name":"Hauptbahnhof Süd","address":"Goethestraße","epsg25832_easting":690347.255,"epsg25832_northing":5334903.015,"epsg31468_x":4467262.754,"epsg31468_y":5333521.554,"nearest_stop_distance_m":52.9,"distinct_line_count":7,"route_count":30,"matsim_modes":"bus;subway;tram","confidence":"medium","unresolved_issue":"LHM s_bahn=Ja vs MATSim rail proxy=false"},"geometry":{"type":"Point","coordinates":[11.55869250,48.13888229]}},
    {"type":"Feature","properties":{"rank":null,"size":"not_selected","eligible":false,"mp_id":"38","name":"Friedenspromenade","address":"Hugo-Weiss-Straße 1","epsg25832_easting":699230.639,"epsg25832_northing":5332296.342,"epsg31468_x":4476037.272,"epsg31468_y":5330570.7,"nearest_stop_distance_m":154.2,"distinct_line_count":0,"route_count":0,"matsim_modes":"","confidence":"low","unresolved_issue":"embedded line break in address; no MATSim stops within 150 m; fewer than two MATSim lines within 150 m; LHM bus=Ja vs MATSim bus=false"},"geometry":{"type":"Point","coordinates":[11.67675443,48.11273654]}},
    {"type":"Feature","properties":{"rank":15,"size":"alternative","eligible":true,"mp_id":"56","name":"Pasinger Marienplatz","address":"Pasinger Marienplatz","epsg25832_easting":682974.822,"epsg25832_northing":5335535.508,"epsg31468_x":4459920.675,"epsg31468_y":5334441.044,"nearest_stop_distance_m":44.7,"distinct_line_count":11,"route_count":88,"matsim_modes":"bus;tram","confidence":"medium","unresolved_issue":"embedded line break in name"},"geometry":{"type":"Point","coordinates":[11.45995896,48.14673030]}},
    {"type":"Feature","properties":{"rank":41,"size":"eligible_not_shortlisted","eligible":true,"mp_id":"202","name":"Fraunhoferstraße","address":"Baaderstraße 78","epsg25832_easting":691674.273,"epsg25832_northing":5333781.566,"epsg31468_x":4468544.993,"epsg31468_y":5332349.259,"nearest_stop_distance_m":30.7,"distinct_line_count":6,"route_count":24,"matsim_modes":"bus;tram","confidence":"medium","unresolved_issue":"LHM u_bahn=Ja vs MATSim subway=false"},"geometry":{"type":"Point","coordinates":[11.57600741,48.12840452]}},
    {"type":"Feature","properties":{"rank":57,"size":"eligible_not_shortlisted","eligible":true,"mp_id":"1808","name":"Mangfallplatz","address":"Mangfallplatz","epsg25832_easting":692171.301,"epsg25832_northing":5330335.191,"epsg31468_x":4468907.298,"epsg31468_y":5328886.268,"nearest_stop_distance_m":65.3,"distinct_line_count":3,"route_count":26,"matsim_modes":"bus;subway","confidence":"high","unresolved_issue":"none"},"geometry":{"type":"Point","coordinates":[11.58112742,48.09727911]}},
    {"type":"Feature","properties":{"rank":61,"size":"eligible_not_shortlisted","eligible":true,"mp_id":"35","name":"Max-Bill-Straße","address":"Max-Bill Straße 14 - 16","epsg25832_easting":692741.101,"epsg25832_northing":5340329.898,"epsg31468_x":4469866.371,"epsg31468_y":5338850.724,"nearest_stop_distance_m":140.9,"distinct_line_count":3,"route_count":8,"matsim_modes":"bus","confidence":"medium","unresolved_issue":"LHM tram=Ja vs MATSim tram=false"},"geometry":{"type":"Point","coordinates":[11.59329625,48.18693698]}},
    {"type":"Feature","properties":{"rank":42,"size":"eligible_not_shortlisted","eligible":true,"mp_id":"31","name":"Freimann","address":"Zinnienstraße 21","epsg25832_easting":694312.623,"epsg25832_northing":5340805.351,"epsg31468_x":4471455.172,"epsg31468_y":5339264.468,"nearest_stop_distance_m":88.2,"distinct_line_count":6,"route_count":53,"matsim_modes":"bus;subway","confidence":"medium","unresolved_issue":"none"},"geometry":{"type":"Point","coordinates":[11.61463554,48.19073139]}},
    {"type":"Feature","properties":{"rank":49,"size":"eligible_not_shortlisted","eligible":true,"mp_id":"1904","name":"Forstenrieder Allee","address":"Forstenrieder Allee 78","epsg25832_easting":685985.013,"epsg25832_northing":5329895.035,"epsg31468_x":4462708.707,"epsg31468_y":5328687.512,"nearest_stop_distance_m":60.9,"distinct_line_count":4,"route_count":48,"matsim_modes":"bus;subway","confidence":"high","unresolved_issue":"none"},"geometry":{"type":"Point","coordinates":[11.49792844,48.09515837]}},
    {"type":"Feature","properties":{"rank":79,"size":"eligible_not_shortlisted","eligible":true,"mp_id":"501","name":"Mariahilfplatz","address":"Mariahilfplatz 28","epsg25832_easting":692176.656,"epsg25832_northing":5333519.346,"epsg31468_x":4469036.751,"epsg31468_y":5332067.663,"nearest_stop_distance_m":83.7,"distinct_line_count":2,"route_count":18,"matsim_modes":"bus","confidence":"medium","unresolved_issue":"none"},"geometry":{"type":"Point","coordinates":[11.58263385,48.12589625]}},
    {"type":"Feature","properties":{"rank":null,"size":"not_selected","eligible":false,"mp_id":"23","name":"Westend","address":"Westendstraße 139 - 141","epsg25832_easting":688310.179,"epsg25832_northing":5334716.678,"epsg31468_x":4465220.015,"epsg31468_y":5333414.792,"nearest_stop_distance_m":257.9,"distinct_line_count":0,"route_count":0,"matsim_modes":"","confidence":"low","unresolved_issue":"embedded line break in name; no MATSim stops within 150 m; fewer than two MATSim lines within 150 m"},"geometry":{"type":"Point","coordinates":[11.53125514,48.13781356]}},
    {"type":"Feature","properties":{"rank":18,"size":"alternative","eligible":true,"mp_id":"42","name":"Trudering Bahnhof Süd","address":"Karpfenstr. / Truderinger straße 272","epsg25832_easting":698260.888,"epsg25832_northing":5333615.099,"epsg31468_x":4475119.737,"epsg31468_y":5331926.153,"nearest_stop_distance_m":42.4,"distinct_line_count":10,"route_count":141,"matsim_modes":"bus;rail","confidence":"medium","unresolved_issue":"LHM u_bahn=Ja vs MATSim subway=false"},"geometry":{"type":"Point","coordinates":[11.66435321,48.12489116]}},
    {"type":"Feature","properties":{"rank":7,"size":"medium","eligible":true,"mp_id":"1002","name":"Moosach Bahnhof","address":"Bunzlauer Straße 12","epsg25832_easting":686379.904,"epsg25832_northing":5339368.047,"epsg31468_x":4463472.661,"epsg31468_y":5338137.842,"nearest_stop_distance_m":28.1,"distinct_line_count":14,"route_count":103,"matsim_modes":"bus;rail;subway;tram","confidence":"high","unresolved_issue":"none"},"geometry":{"type":"Point","coordinates":[11.50737208,48.18018985]}},
    {"type":"Feature","properties":{"rank":44,"size":"eligible_not_shortlisted","eligible":true,"mp_id":"1105","name":"Harthof","address":"Parlerstraße/Weyprechtstraße","epsg25832_easting":690964.381,"epsg25832_northing":5342266.605,"epsg31468_x":4468166.658,"epsg31468_y":5340855.218,"nearest_stop_distance_m":42.0,"distinct_line_count":5,"route_count":26,"matsim_modes":"bus;subway","confidence":"high","unresolved_issue":"none"},"geometry":{"type":"Point","coordinates":[11.57028693,48.20488034]}},
    {"type":"Feature","properties":{"rank":null,"size":"not_selected","eligible":false,"mp_id":"1407","name":"Innsbrucker Ring","address":"Echardinger Str. 65","epsg25832_easting":695147.331,"epsg25832_northing":5333004.796,"epsg31468_x":4471984.962,"epsg31468_y":5331437.726,"nearest_stop_distance_m":154.5,"distinct_line_count":0,"route_count":0,"matsim_modes":"","confidence":"low","unresolved_issue":"no MATSim stops within 150 m; fewer than two MATSim lines within 150 m; LHM bus=Ja vs MATSim bus=false; LHM u_bahn=Ja vs MATSim subway=false"},"geometry":{"type":"Point","coordinates":[11.62227772,48.12036803]}},
    {"type":"Feature","properties":{"rank":null,"size":"not_selected","eligible":false,"mp_id":"1406","name":"Isareckstraße","address":"Schlüsselbergstraße 16","epsg25832_easting":695089.591,"epsg25832_northing":5333857.305,"epsg31468_x":4471960.503,"epsg31468_y":5332291.788,"nearest_stop_distance_m":150.8,"distinct_line_count":0,"route_count":0,"matsim_modes":"","confidence":"low","unresolved_issue":"no MATSim stops within 150 m; fewer than two MATSim lines within 150 m; LHM bus=Ja vs MATSim bus=false"},"geometry":{"type":"Point","coordinates":[11.62189287,48.12804770]}},
    {"type":"Feature","properties":{"rank":34,"size":"eligible_not_shortlisted","eligible":true,"mp_id":"2505","name":"Friedenheimer Straße","address":"Zschokkestraße / Burgkmairstraße","epsg25832_easting":686900.545,"epsg25832_northing":5334348.422,"epsg31468_x":4463797.118,"epsg31468_y":5333101.785,"nearest_stop_distance_m":81.7,"distinct_line_count":6,"route_count":29,"matsim_modes":"bus;subway;tram","confidence":"medium","unresolved_issue":"none"},"geometry":{"type":"Point","coordinates":[11.51216430,48.13491915]}},
    {"type":"Feature","properties":{"rank":30,"size":"eligible_not_shortlisted","eligible":true,"mp_id":"28","name":"Steubenplatz","address":"Wendel-Dietrich-Straße 31 - 33","epsg25832_easting":687463.028,"epsg25832_northing":5336171.416,"epsg31468_x":4464430.251,"epsg31468_y":5334901.433,"nearest_stop_distance_m":63.4,"distinct_line_count":7,"route_count":38,"matsim_modes":"bus;tram","confidence":"high","unresolved_issue":"none"},"geometry":{"type":"Point","coordinates":[11.52051973,48.15113924]}},
    {"type":"Feature","properties":{"rank":null,"size":"not_selected","eligible":false,"mp_id":"15","name":"Jean-Paul-Richter-Straße","address":"Jean-Paul-Richter-Straße","epsg25832_easting":688017.353,"epsg25832_northing":5331801.37,"epsg31468_x":4464813.768,"epsg31468_y":5330513.173,"nearest_stop_distance_m":57.1,"distinct_line_count":1,"route_count":5,"matsim_modes":"bus","confidence":"low","unresolved_issue":"fewer than two MATSim lines within 150 m"},"geometry":{"type":"Point","coordinates":[11.52603698,48.11169669]}},
    {"type":"Feature","properties":{"rank":58,"size":"eligible_not_shortlisted","eligible":true,"mp_id":"45","name":"Perlach Bahnhof","address":"Schneckestraße 13","epsg25832_easting":695860.259,"epsg25832_northing":5330117.682,"epsg31468_x":4472584.788,"epsg31468_y":5328525.193,"nearest_stop_distance_m":52.9,"distinct_line_count":3,"route_count":41,"matsim_modes":"bus;rail","confidence":"medium","unresolved_issue":"embedded line break in name"},"geometry":{"type":"Point","coordinates":[11.63052182,48.09420114]}},
    {"type":"Feature","properties":{"rank":29,"size":"eligible_not_shortlisted","eligible":true,"mp_id":"1805","name":"Wettersteinplatz","address":"Wettersteinplatz 1","epsg25832_easting":691677.739,"epsg25832_northing":5331628.287,"epsg31468_x":4468464.522,"epsg31468_y":5330197.564,"nearest_stop_distance_m":32.7,"distinct_line_count":7,"route_count":46,"matsim_modes":"subway;tram","confidence":"medium","unresolved_issue":"LHM bus=Ja vs MATSim bus=false; LHM tram=Nein vs MATSim tram=true"},"geometry":{"type":"Point","coordinates":[11.57508594,48.10905001]}},
    {"type":"Feature","properties":{"rank":14,"size":"alternative","eligible":true,"mp_id":"1301","name":"Arabellapark","address":"Elektrastraße 6","epsg25832_easting":694945.463,"epsg25832_northing":5336636.736,"epsg31468_x":4471924.871,"epsg31468_y":5335074.567,"nearest_stop_distance_m":33.2,"distinct_line_count":11,"route_count":67,"matsim_modes":"bus;subway","confidence":"medium","unresolved_issue":"LHM tram=Ja vs MATSim tram=false"},"geometry":{"type":"Point","coordinates":[11.62123025,48.15307212]}},
    {"type":"Feature","properties":{"rank":37,"size":"eligible_not_shortlisted","eligible":true,"mp_id":"1302","name":"Richard-Strauss-Straße","address":"Richard-Strauss-Straße","epsg25832_easting":694605.026,"epsg25832_northing":5336124.92,"epsg31468_x":4471564.751,"epsg31468_y":5334576.446,"nearest_stop_distance_m":10.7,"distinct_line_count":6,"route_count":47,"matsim_modes":"bus;subway","confidence":"high","unresolved_issue":"none"},"geometry":{"type":"Point","coordinates":[11.61642369,48.14857640]}},
    {"type":"Feature","properties":{"rank":null,"size":"not_selected","eligible":false,"mp_id":"54","name":"Dreimühlenstraße","address":"Isartalstraße/Dreimühlenstraße","epsg25832_easting":690706.526,"epsg25832_northing":5333099.878,"epsg31468_x":4467551.442,"epsg31468_y":5331705.84,"nearest_stop_distance_m":203.3,"distinct_line_count":0,"route_count":0,"matsim_modes":"","confidence":"low","unresolved_issue":"no MATSim stops within 150 m; fewer than two MATSim lines within 150 m"},"geometry":{"type":"Point","coordinates":[11.56270990,48.12256818]}},
    {"type":"Feature","properties":{"rank":40,"size":"eligible_not_shortlisted","eligible":true,"mp_id":"29","name":"Troppauer Straße","address":"Troppauerstraße 1","epsg25832_easting":691149.492,"epsg25832_northing":5341195.488,"epsg31468_x":4468309.817,"epsg31468_y":5339777.73,"nearest_stop_distance_m":13.2,"distinct_line_count":6,"route_count":32,"matsim_modes":"bus;subway","confidence":"medium","unresolved_issue":"embedded line break in name"},"geometry":{"type":"Point","coordinates":[11.57229351,48.19519766]}},
    {"type":"Feature","properties":{"rank":null,"size":"not_selected","eligible":false,"mp_id":"13","name":"Schlotthauerstraße","address":"Schlotthauerstraße 3","epsg25832_easting":691665.335,"epsg25832_northing":5333200.997,"epsg31468_x":4468513.429,"epsg31468_y":5331769.501,"nearest_stop_distance_m":280.9,"distinct_line_count":0,"route_count":0,"matsim_modes":"","confidence":"low","unresolved_issue":"embedded line break in name; no MATSim stops within 150 m; fewer than two MATSim lines within 150 m"},"geometry":{"type":"Point","coordinates":[11.57562634,48.12318911]}},
    {"type":"Feature","properties":{"rank":null,"size":"not_selected","eligible":false,"mp_id":"211","name":"Zenettiplatz","address":"Zenettiplatz 1 - 2","epsg25832_easting":690174.291,"epsg25832_northing":5333300.83,"epsg31468_x":4467027.461,"epsg31468_y":5331927.381,"nearest_stop_distance_m":189.8,"distinct_line_count":0,"route_count":0,"matsim_modes":"","confidence":"low","unresolved_issue":"no MATSim stops within 150 m; fewer than two MATSim lines within 150 m"},"geometry":{"type":"Point","coordinates":[11.55565476,48.12453354]}},
    {"type":"Feature","properties":{"rank":null,"size":"not_selected","eligible":false,"mp_id":"2002","name":"Max-Lebsche-Platz","address":"westlich der Heiglhofstraße 54 in der Sauerbruchstraße","epsg25832_easting":684312.854,"epsg25832_northing":5331356.887,"epsg31468_x":4461094.791,"epsg31468_y":5330213.413,"nearest_stop_distance_m":54.0,"distinct_line_count":1,"route_count":10,"matsim_modes":"bus","confidence":"low","unresolved_issue":"fewer than two MATSim lines within 150 m; LHM u_bahn=Ja vs MATSim subway=false"},"geometry":{"type":"Point","coordinates":[11.47612319,48.10878421]}},
    {"type":"Feature","properties":{"rank":62,"size":"eligible_not_shortlisted","eligible":true,"mp_id":"409","name":"Herzogstraße","address":"Herzogstraße 142","epsg25832_easting":690647.419,"epsg25832_northing":5337657.849,"epsg31468_x":4467670.117,"epsg31468_y":5336262.497,"nearest_stop_distance_m":20.6,"distinct_line_count":3,"route_count":10,"matsim_modes":"tram","confidence":"high","unresolved_issue":"none"},"geometry":{"type":"Point","coordinates":[11.56395714,48.16355270]}},
    {"type":"Feature","properties":{"rank":69,"size":"eligible_not_shortlisted","eligible":true,"mp_id":"408","name":"Destoucheestraße","address":"Destoucheestraße 50","epsg25832_easting":691400.43,"epsg25832_northing":5337799.17,"epsg31468_x":4468428.041,"epsg31468_y":5336374.332,"nearest_stop_distance_m":107.8,"distinct_line_count":2,"route_count":3,"matsim_modes":"tram","confidence":"medium","unresolved_issue":"none"},"geometry":{"type":"Point","coordinates":[11.57413717,48.16459662]}},
    {"type":"Feature","properties":{"rank":72,"size":"eligible_not_shortlisted","eligible":true,"mp_id":"48","name":"Ella-Lingens-Platz","address":"Werner-Schlierf-Straße 23","epsg25832_easting":692060.318,"epsg25832_northing":5331731.344,"epsg31468_x":4468850.812,"epsg31468_y":5330285.628,"nearest_stop_distance_m":132.5,"distinct_line_count":2,"route_count":10,"matsim_modes":"bus","confidence":"medium","unresolved_issue":"none"},"geometry":{"type":"Point","coordinates":[11.58026669,48.10986104]}},
    {"type":"Feature","properties":{"rank":null,"size":"not_selected","eligible":false,"mp_id":"34","name":"Marianne-Brandt-Straße","address":"Marianne-Brandt-Straße 3 - 7","epsg25832_easting":692796.126,"epsg25832_northing":5339639.725,"epsg31468_x":4469894.421,"epsg31468_y":5338158.961,"nearest_stop_distance_m":321.8,"distinct_line_count":0,"route_count":0,"matsim_modes":"","confidence":"low","unresolved_issue":"embedded line break in address; no MATSim stops within 150 m; fewer than two MATSim lines within 150 m"},"geometry":{"type":"Point","coordinates":[11.59372263,48.18071724]}},
    {"type":"Feature","properties":{"rank":null,"size":"not_selected","eligible":false,"mp_id":"50","name":"Kesselbergstraße","address":"Walchenseeplatz 1","epsg25832_easting":692288.133,"epsg25832_northing":5332081.376,"epsg31468_x":4469092.087,"epsg31468_y":5330626.5,"nearest_stop_distance_m":227.7,"distinct_line_count":0,"route_count":0,"matsim_modes":"","confidence":"low","unresolved_issue":"no MATSim stops within 150 m; fewer than two MATSim lines within 150 m"},"geometry":{"type":"Point","coordinates":[11.58348188,48.11293834]}},
    {"type":"Feature","properties":{"rank":36,"size":"eligible_not_shortlisted","eligible":true,"mp_id":"11","name":"Falkenstraße","address":"Falkenstraße 7 / 8a","epsg25832_easting":691990.081,"epsg25832_northing":5333225.948,"epsg31468_x":4468838.888,"epsg31468_y":5331781.773,"nearest_stop_distance_m":104.8,"distinct_line_count":6,"route_count":17,"matsim_modes":"bus;tram","confidence":"medium","unresolved_issue":"embedded line break in name"},"geometry":{"type":"Point","coordinates":[11.57999698,48.12331552]}},
    {"type":"Feature","properties":{"rank":null,"size":"not_selected","eligible":false,"mp_id":"46","name":"Plettstraße","address":"Plettstraße 35","epsg25832_easting":696589.933,"epsg25832_northing":5331545.813,"epsg31468_x":4473369.514,"epsg31468_y":5329923.715,"nearest_stop_distance_m":260.7,"distinct_line_count":0,"route_count":0,"matsim_modes":"","confidence":"low","unresolved_issue":"embedded line break in name; embedded line break in address; no MATSim stops within 150 m; fewer than two MATSim lines within 150 m"},"geometry":{"type":"Point","coordinates":[11.64096881,48.10681176]}},
    {"type":"Feature","properties":{"rank":63,"size":"eligible_not_shortlisted","eligible":true,"mp_id":"1801","name":"Schyrenbad","address":"Schyrenstraße 8","epsg25832_easting":691277.309,"epsg25832_northing":5332891.585,"epsg31468_x":4468113.651,"epsg31468_y":5331475.463,"nearest_stop_distance_m":86.0,"distinct_line_count":3,"route_count":21,"matsim_modes":"bus","confidence":"medium","unresolved_issue":"none"},"geometry":{"type":"Point","coordinates":[11.57027861,48.12052484]}},
    {"type":"Feature","properties":{"rank":null,"size":"not_selected","eligible":false,"mp_id":"2","name":"Knöbelstraße","address":"Knöbelstraße 2 - 6a","epsg25832_easting":692249.668,"epsg25832_northing":5334661.104,"epsg31468_x":4469154.218,"epsg31468_y":5333205.658,"nearest_stop_distance_m":215.4,"distinct_line_count":0,"route_count":0,"matsim_modes":"","confidence":"low","unresolved_issue":"no MATSim stops within 150 m; fewer than two MATSim lines within 150 m"},"geometry":{"type":"Point","coordinates":[11.58412915,48.13613612]}},
    {"type":"Feature","properties":{"rank":null,"size":"not_selected","eligible":false,"mp_id":"18","name":"Ganghoferstraße","address":"Ganghoferstraße 1","epsg25832_easting":689018.812,"epsg25832_northing":5334771.769,"epsg31468_x":4465930.241,"epsg31468_y":5333442.21,"nearest_stop_distance_m":168.8,"distinct_line_count":0,"route_count":0,"matsim_modes":"","confidence":"low","unresolved_issue":"no MATSim stops within 150 m; fewer than two MATSim lines within 150 m; LHM tram=Ja vs MATSim tram=false"},"geometry":{"type":"Point","coordinates":[11.54079529,48.13809864]}},
    {"type":"Feature","properties":{"rank":53,"size":"eligible_not_shortlisted","eligible":true,"mp_id":"601","name":"Implerstraße","address":"Implerstraße 36","epsg25832_easting":689635.435,"epsg25832_northing":5332880.329,"epsg31468_x":4466472.639,"epsg31468_y":5331528.216,"nearest_stop_distance_m":85.8,"distinct_line_count":4,"route_count":79,"matsim_modes":"subway","confidence":"medium","unresolved_issue":"LHM bus=Ja vs MATSim bus=false"},"geometry":{"type":"Point","coordinates":[11.54823374,48.12091477]}},
    {"type":"Feature","properties":{"rank":47,"size":"eligible_not_shortlisted","eligible":true,"mp_id":"2501","name":"Willibaldplatz","address":"Willibaldplatz Südseite","epsg25832_easting":685173.475,"epsg25832_northing":5334909.302,"epsg31468_x":4462093.244,"epsg31468_y":5333729.575,"nearest_stop_distance_m":39.6,"distinct_line_count":5,"route_count":17,"matsim_modes":"tram","confidence":"medium","unresolved_issue":"LHM bus=Ja vs MATSim bus=false"},"geometry":{"type":"Point","coordinates":[11.48921711,48.14046548]}},
    {"type":"Feature","properties":{"rank":25,"size":"eligible_not_shortlisted","eligible":true,"mp_id":"2507","name":"Westendstraße","address":"Hauzenberger Straße 26","epsg25832_easting":687624.511,"epsg25832_northing":5334379.511,"epsg31468_x":4464521.734,"epsg31468_y":5333104.622,"nearest_stop_distance_m":39.4,"distinct_line_count":7,"route_count":45,"matsim_modes":"bus;subway;tram","confidence":"high","unresolved_issue":"none"},"geometry":{"type":"Point","coordinates":[11.52189919,48.13498556]}},
    {"type":"Feature","properties":{"rank":38,"size":"eligible_not_shortlisted","eligible":true,"mp_id":"602","name":"Brudermühlstraße","address":"Thalkirchener Straße 143-145","epsg25832_easting":689687.917,"epsg25832_northing":5331841.696,"epsg31468_x":4466484.596,"epsg31468_y":5330488.356,"nearest_stop_distance_m":64.2,"distinct_line_count":6,"route_count":64,"matsim_modes":"bus;subway","confidence":"medium","unresolved_issue":"LHM bus=Nein vs MATSim bus=true"},"geometry":{"type":"Point","coordinates":[11.54847624,48.11156382]}},
    {"type":"Feature","properties":{"rank":null,"size":"not_selected","eligible":false,"mp_id":"24","name":"Hirschbergstraße","address":"Hirschbergstraße 12","epsg25832_easting":688474.899,"epsg25832_northing":5335942.079,"epsg31468_x":4465432.39,"epsg31468_y":5334632.813,"nearest_stop_distance_m":228.6,"distinct_line_count":0,"route_count":0,"matsim_modes":"","confidence":"low","unresolved_issue":"no MATSim stops within 150 m; fewer than two MATSim lines within 150 m"},"geometry":{"type":"Point","coordinates":[11.53400945,48.14877889]}},
    {"type":"Feature","properties":{"rank":null,"size":"not_selected","eligible":false,"mp_id":"20","name":"Hans-Fischer-Straße","address":"Hans-Fischer-Str. 9","epsg25832_easting":689322.385,"epsg25832_northing":5333632.319,"epsg31468_x":4466189.15,"epsg31468_y":5332291.819,"nearest_stop_distance_m":38.8,"distinct_line_count":1,"route_count":16,"matsim_modes":"bus","confidence":"low","unresolved_issue":"fewer than two MATSim lines within 150 m"},"geometry":{"type":"Point","coordinates":[11.54436542,48.12776690]}},
    {"type":"Feature","properties":{"rank":56,"size":"eligible_not_shortlisted","eligible":true,"mp_id":"1303","name":"Böhmerwaldplatz","address":"Böhmerwaldplatz 28","epsg25832_easting":694531.417,"epsg25832_northing":5335454.287,"epsg31468_x":4471465.05,"epsg31468_y":5333909.23,"nearest_stop_distance_m":24.9,"distinct_line_count":3,"route_count":25,"matsim_modes":"bus;subway","confidence":"high","unresolved_issue":"none"},"geometry":{"type":"Point","coordinates":[11.61512870,48.14257154]}},
    {"type":"Feature","properties":{"rank":46,"size":"eligible_not_shortlisted","eligible":true,"mp_id":"30","name":"Karl-Weinmair-Straße","address":"Karl-Weinmair-Str. 10, 11, 14","epsg25832_easting":692410.076,"epsg25832_northing":5339513.864,"epsg31468_x":4469503.772,"epsg31468_y":5338048.264,"nearest_stop_distance_m":52.2,"distinct_line_count":5,"route_count":12,"matsim_modes":"tram","confidence":"high","unresolved_issue":"none"},"geometry":{"type":"Point","coordinates":[11.58847755,48.17970306]}},
    {"type":"Feature","properties":{"rank":3,"size":"large","eligible":true,"mp_id":"62","name":"Münchner Freiheit","address":"Münchner Freiheit","epsg25832_easting":692329.986,"epsg25832_northing":5337609.636,"epsg31468_x":4469349.459,"epsg31468_y":5336148.692,"nearest_stop_distance_m":24.1,"distinct_line_count":18,"route_count":151,"matsim_modes":"bus;subway;tram","confidence":"medium","unresolved_issue":"embedded line break in name"},"geometry":{"type":"Point","coordinates":[11.58653984,48.16261261]}},
    {"type":"Feature","properties":{"rank":null,"size":"not_selected","eligible":false,"mp_id":"502","name":"Welfenstraße","address":"Welfenstraße 13","epsg25832_easting":692619.074,"epsg25832_northing":5333120.423,"epsg31468_x":4469463.263,"epsg31468_y":5331651.813,"nearest_stop_distance_m":168.7,"distinct_line_count":0,"route_count":0,"matsim_modes":"","confidence":"low","unresolved_issue":"no MATSim stops within 150 m; fewer than two MATSim lines within 150 m; LHM bus=Ja vs MATSim bus=false"},"geometry":{"type":"Point","coordinates":[11.58839289,48.12217710]}},
    {"type":"Feature","properties":{"rank":35,"size":"eligible_not_shortlisted","eligible":true,"mp_id":"1308","name":"Fritz-Meyer-Weg","address":"Fritz-Meyer-Weg","epsg25832_easting":695991.58,"epsg25832_northing":5338807.805,"epsg31468_x":4473054.814,"epsg31468_y":5337203.049,"nearest_stop_distance_m":30.5,"distinct_line_count":6,"route_count":41,"matsim_modes":"bus;tram","confidence":"high","unresolved_issue":"none"},"geometry":{"type":"Point","coordinates":[11.63628124,48.17226288]}},
    {"type":"Feature","properties":{"rank":null,"size":"not_selected","eligible":false,"mp_id":"43","name":"Karl-Marx-Zentrum","address":"Peschelanger","epsg25832_easting":697732.336,"epsg25832_northing":5331708.983,"epsg31468_x":4474517.329,"epsg31468_y":5330042.227,"nearest_stop_distance_m":178.4,"distinct_line_count":0,"route_count":0,"matsim_modes":"","confidence":"low","unresolved_issue":"no MATSim stops within 150 m; fewer than two MATSim lines within 150 m; LHM bus=Ja vs MATSim bus=false"},"geometry":{"type":"Point","coordinates":[11.65637430,48.10792466]}},
    {"type":"Feature","properties":{"rank":76,"size":"eligible_not_shortlisted","eligible":true,"mp_id":"404","name":"Bonner Platz","address":"Karl-Theodort-Straße 55","epsg25832_easting":691690.094,"epsg25832_northing":5338104.666,"epsg31468_x":4468729.391,"epsg31468_y":5336668.285,"nearest_stop_distance_m":58.2,"distinct_line_count":2,"route_count":28,"matsim_modes":"subway","confidence":"high","unresolved_issue":"none"},"geometry":{"type":"Point","coordinates":[11.57816646,48.16725509]}},
    {"type":"Feature","properties":{"rank":2,"size":"large","eligible":true,"mp_id":"506","name":"Ostbahnhof/Belfortstraße","address":"Belfortstraße 2","epsg25832_easting":693719.219,"epsg25832_northing":5333910.103,"epsg31468_x":4470593.305,"epsg31468_y":5332397.968,"nearest_stop_distance_m":23.1,"distinct_line_count":25,"route_count":139,"matsim_modes":"bus;rail;subway;tram","confidence":"medium","unresolved_issue":"LHM tram=Nein vs MATSim tram=true"},"geometry":{"type":"Point","coordinates":[11.60351964,48.12894073]}},
    {"type":"Feature","properties":{"rank":1,"size":"large","eligible":true,"mp_id":"312","name":"ZOB","address":"Bernhard-Wicki-Straße","epsg25832_easting":689565.11,"epsg25832_northing":5335307.695,"epsg31468_x":4466497.007,"epsg31468_y":5333956.412,"nearest_stop_distance_m":29.1,"distinct_line_count":52,"route_count":427,"matsim_modes":"bus;rail;tram","confidence":"high","unresolved_issue":"none"},"geometry":{"type":"Point","coordinates":[11.54836968,48.14275306]}},
    {"type":"Feature","properties":{"rank":28,"size":"eligible_not_shortlisted","eligible":true,"mp_id":"1803","name":"Candidplatz","address":"Pilgersheimer Str. 89","epsg25832_easting":691389.812,"epsg25832_northing":5331952.085,"epsg31468_x":4468189.444,"epsg31468_y":5330532.326,"nearest_stop_distance_m":68.0,"distinct_line_count":7,"route_count":42,"matsim_modes":"bus;subway","confidence":"high","unresolved_issue":"none"},"geometry":{"type":"Point","coordinates":[11.57136712,48.11204687]}},
    {"type":"Feature","properties":{"rank":71,"size":"eligible_not_shortlisted","eligible":true,"mp_id":"305","name":"Tengstraße","address":"Tengstraße 3","epsg25832_easting":690985.474,"epsg25832_northing":5336652.179,"epsg31468_x":4467968.678,"epsg31468_y":5335244.441,"nearest_stop_distance_m":136.1,"distinct_line_count":2,"route_count":10,"matsim_modes":"bus","confidence":"medium","unresolved_issue":"LHM u_bahn=Ja vs MATSim subway=false"},"geometry":{"type":"Point","coordinates":[11.56804735,48.15441239]}},
    {"type":"Feature","properties":{"rank":77,"size":"eligible_not_shortlisted","eligible":true,"mp_id":"59","name":"Neuaubing","address":"Bodenseestraße 238","epsg25832_easting":680264.174,"epsg25832_northing":5335020.662,"epsg31468_x":4457191.968,"epsg31468_y":5334032.287,"nearest_stop_distance_m":20.0,"distinct_line_count":2,"route_count":3,"matsim_modes":"bus","confidence":"medium","unresolved_issue":"embedded line break in name; LHM s_bahn=Ja vs MATSim rail proxy=false"},"geometry":{"type":"Point","coordinates":[11.42333242,48.14287632]}},
    {"type":"Feature","properties":{"rank":68,"size":"eligible_not_shortlisted","eligible":true,"mp_id":"57","name":"Aubing","address":"Colmdorfstraße 34","epsg25832_easting":679535.839,"epsg25832_northing":5336412.172,"epsg31468_x":4456518.436,"epsg31468_y":5335451.178,"nearest_stop_distance_m":72.4,"distinct_line_count":3,"route_count":71,"matsim_modes":"rail","confidence":"high","unresolved_issue":"none"},"geometry":{"type":"Point","coordinates":[11.41413720,48.15559049]}},
    {"type":"Feature","properties":{"rank":66,"size":"eligible_not_shortlisted","eligible":true,"mp_id":"53","name":"Hermine-von-Parish-Straße","address":"Hermine-von Parish-Straße 3","epsg25832_easting":684178.126,"epsg25832_northing":5335966.429,"epsg31468_x":4461139.876,"epsg31468_y":5334824.713,"nearest_stop_distance_m":106.5,"distinct_line_count":3,"route_count":26,"matsim_modes":"bus","confidence":"medium","unresolved_issue":"none"},"geometry":{"type":"Point","coordinates":[11.47630731,48.15025641]}},
    {"type":"Feature","properties":{"rank":null,"size":"not_selected","eligible":false,"mp_id":"60","name":"Westkreuz","address":"Friedrichshafener Straße 11","epsg25832_easting":681647.241,"epsg25832_northing":5335631.642,"epsg31468_x":4458597.836,"epsg31468_y":5334588.879,"nearest_stop_distance_m":153.2,"distinct_line_count":0,"route_count":0,"matsim_modes":"","confidence":"low","unresolved_issue":"no MATSim stops within 150 m; fewer than two MATSim lines within 150 m; LHM bus=Ja vs MATSim bus=false; LHM s_bahn=Ja vs MATSim rail proxy=false"},"geometry":{"type":"Point","coordinates":[11.44216853,48.14797491]}},
    {"type":"Feature","properties":{"rank":65,"size":"eligible_not_shortlisted","eligible":true,"mp_id":"52","name":"Untersbergstraße","address":"Untersbergstraße 33-35","epsg25832_easting":692578.932,"epsg25832_northing":5332021.857,"epsg31468_x":4469380.333,"epsg31468_y":5330555.695,"nearest_stop_distance_m":33.6,"distinct_line_count":3,"route_count":33,"matsim_modes":"subway","confidence":"high","unresolved_issue":"none"},"geometry":{"type":"Point","coordinates":[11.58735790,48.11231554]}},
    {"type":"Feature","properties":{"rank":31,"size":"eligible_not_shortlisted","eligible":true,"mp_id":"308","name":"Stiglmaierplatz","address":"Briennerstraße 59","epsg25832_easting":690358.08,"epsg25832_northing":5335848.684,"epsg31468_x":4467310.446,"epsg31468_y":5334466.052,"nearest_stop_distance_m":40.6,"distinct_line_count":7,"route_count":24,"matsim_modes":"bus;tram","confidence":"medium","unresolved_issue":"LHM u_bahn=Ja vs MATSim subway=false"},"geometry":{"type":"Point","coordinates":[11.55926062,48.14737871]}},
    {"type":"Feature","properties":{"rank":32,"size":"eligible_not_shortlisted","eligible":true,"mp_id":"2001","name":"Großhadern","address":"Würmtalstraße 142","epsg25832_easting":684254.338,"epsg25832_northing":5332102.569,"epsg31468_x":4461065.383,"epsg31468_y":5330960.811,"nearest_stop_distance_m":53.1,"distinct_line_count":7,"route_count":46,"matsim_modes":"bus;subway","confidence":"high","unresolved_issue":"none"},"geometry":{"type":"Point","coordinates":[11.47565996,48.11550378]}},
    {"type":"Feature","properties":{"rank":50,"size":"eligible_not_shortlisted","eligible":true,"mp_id":"1909","name":"Obersendling","address":"August-Zeune-Weg 4","epsg25832_easting":688883.292,"epsg25832_northing":5330383.666,"epsg31468_x":4465623.781,"epsg31468_y":5329062.828,"nearest_stop_distance_m":73.3,"distinct_line_count":4,"route_count":47,"matsim_modes":"bus;subway","confidence":"high","unresolved_issue":"none"},"geometry":{"type":"Point","coordinates":[11.53703161,48.09869789]}},
    {"type":"Feature","properties":{"rank":null,"size":"not_selected","eligible":false,"mp_id":"1304","name":"Prinzregentenstadion","address":"Prinzregentenplatz 6","epsg25832_easting":693725.433,"epsg25832_northing":5335098.56,"epsg31468_x":4470645.85,"epsg31468_y":5333585.22,"nearest_stop_distance_m":209.0,"distinct_line_count":0,"route_count":0,"matsim_modes":"","confidence":"low","unresolved_issue":"no MATSim stops within 150 m; fewer than two MATSim lines within 150 m; LHM bus=Ja vs MATSim bus=false; LHM u_bahn=Ja vs MATSim subway=false"},"geometry":{"type":"Point","coordinates":[11.60414348,48.13962031]}},
    {"type":"Feature","properties":{"rank":33,"size":"eligible_not_shortlisted","eligible":true,"mp_id":"603","name":"Mittersendling Ost","address":"Leipartstraße 20","epsg25832_easting":688841.501,"epsg25832_northing":5331459.568,"epsg31468_x":4465623.951,"epsg31468_y":5330139.517,"nearest_stop_distance_m":76.1,"distinct_line_count":7,"route_count":62,"matsim_modes":"rail","confidence":"medium","unresolved_issue":"none"},"geometry":{"type":"Point","coordinates":[11.53694697,48.10838069]}},
    {"type":"Feature","properties":{"rank":23,"size":"eligible_not_shortlisted","eligible":true,"mp_id":"5","name":"Pacellistraße","address":"Pacellistraße 5","epsg25832_easting":691218.693,"epsg25832_northing":5335116.43,"epsg31468_x":4468141.822,"epsg31468_y":5333700.82,"nearest_stop_distance_m":120.6,"distinct_line_count":8,"route_count":16,"matsim_modes":"bus;tram","confidence":"medium","unresolved_issue":"LHM bus=Nein vs MATSim bus=true; LHM u_bahn=Ja vs MATSim subway=false"},"geometry":{"type":"Point","coordinates":[11.57049020,48.14053917]}},
    {"type":"Feature","properties":{"rank":60,"size":"eligible_not_shortlisted","eligible":true,"mp_id":"1403","name":"August-Everding-Straße","address":"August-Everding-Straße 20 (in der Grafinger Straße)","epsg25832_easting":694306.793,"epsg25832_northing":5333474.335,"epsg31468_x":4471163.414,"epsg31468_y":5331939.648,"nearest_stop_distance_m":67.0,"distinct_line_count":3,"route_count":21,"matsim_modes":"bus","confidence":"high","unresolved_issue":"none"},"geometry":{"type":"Point","coordinates":[11.61120927,48.12484513]}},
    {"type":"Feature","properties":{"rank":null,"size":"not_selected","eligible":false,"mp_id":"1804","name":"Tierpark - Alemannenstraße","address":"Alemannenstraße 2","epsg25832_easting":690471.721,"epsg25832_northing":5330655.54,"epsg31468_x":4467221.554,"epsg31468_y":5329272.59,"nearest_stop_distance_m":22.9,"distinct_line_count":1,"route_count":4,"matsim_modes":"bus","confidence":"low","unresolved_issue":"fewer than two MATSim lines within 150 m"},"geometry":{"type":"Point","coordinates":[11.55846635,48.10066869]}},
    {"type":"Feature","properties":{"rank":64,"size":"eligible_not_shortlisted","eligible":true,"mp_id":"26","name":"Nibelungenstraße","address":"Nibelungenstraße 18","epsg25832_easting":687998.904,"epsg25832_northing":5336408.63,"epsg31468_x":4464974.962,"epsg31468_y":5335117.563,"nearest_stop_distance_m":128.3,"distinct_line_count":3,"route_count":20,"matsim_modes":"bus","confidence":"medium","unresolved_issue":"none"},"geometry":{"type":"Point","coordinates":[11.52782233,48.15311319]}},
    {"type":"Feature","properties":{"rank":null,"size":"not_selected","eligible":false,"mp_id":"407","name":"Georg-Birk-Straße","address":"Petra-Kelly-Straße 26","epsg25832_easting":690135.806,"epsg25832_northing":5337572.766,"epsg31468_x":4467155.591,"epsg31468_y":5336197.437,"nearest_stop_distance_m":107.8,"distinct_line_count":1,"route_count":7,"matsim_modes":"bus","confidence":"low","unresolved_issue":"fewer than two MATSim lines within 150 m"},"geometry":{"type":"Point","coordinates":[11.55704570,48.16294118]}},
    {"type":"Feature","properties":{"rank":51,"size":"eligible_not_shortlisted","eligible":true,"mp_id":"1103","name":"Milbertshofen","address":"Keferloherstraße 101","epsg25832_easting":691191.784,"epsg25832_northing":5339710.065,"epsg31468_x":4468294.111,"epsg31468_y":5338291.842,"nearest_stop_distance_m":66.3,"distinct_line_count":4,"route_count":28,"matsim_modes":"bus;subway","confidence":"high","unresolved_issue":"none"},"geometry":{"type":"Point","coordinates":[11.57219343,48.18183422]}},
    {"type":"Feature","properties":{"rank":9,"size":"small","eligible":true,"mp_id":"510","name":"Grillparzerstraße","address":"Versailler Straße 1","epsg25832_easting":694163.352,"epsg25832_northing":5334778.649,"epsg31468_x":4471070.94,"epsg31468_y":5333248.494,"nearest_stop_distance_m":30.7,"distinct_line_count":14,"route_count":85,"matsim_modes":"bus;tram","confidence":"high","unresolved_issue":"none"},"geometry":{"type":"Point","coordinates":[11.60987803,48.13661160]}},
    {"type":"Feature","properties":{"rank":null,"size":"not_selected","eligible":false,"mp_id":"1802","name":"Hans-Mielich-Platz","address":"Hans-Mielich-Platz","epsg25832_easting":691304.206,"epsg25832_northing":5332456.239,"epsg31468_x":4468123.557,"epsg31468_y":5331039.415,"nearest_stop_distance_m":201.9,"distinct_line_count":0,"route_count":0,"matsim_modes":"","confidence":"low","unresolved_issue":"no MATSim stops within 150 m; fewer than two MATSim lines within 150 m; LHM bus=Ja vs MATSim bus=false; LHM u_bahn=Ja vs MATSim subway=false"},"geometry":{"type":"Point","coordinates":[11.57044433,48.11660390]}},
    {"type":"Feature","properties":{"rank":null,"size":"not_selected","eligible":false,"mp_id":"2502","name":"Aindorferstraße","address":"Aindorferstraße","epsg25832_easting":685568.094,"epsg25832_northing":5334016.056,"epsg31468_x":4462452.732,"epsg31468_y":5332821.626,"nearest_stop_distance_m":317.5,"distinct_line_count":0,"route_count":0,"matsim_modes":"","confidence":"low","unresolved_issue":"no MATSim stops within 150 m; fewer than two MATSim lines within 150 m"},"geometry":{"type":"Point","coordinates":[11.49412747,48.13232163]}},
    {"type":"Feature","properties":{"rank":78,"size":"eligible_not_shortlisted","eligible":true,"mp_id":"311","name":"Amalienstraße","address":"Theresienstraße 22 / Amalienstraße 28A","epsg25832_easting":691661.077,"epsg25832_northing":5335926.457,"epsg31468_x":4468615.439,"epsg31468_y":5334492.949,"nearest_stop_distance_m":24.3,"distinct_line_count":2,"route_count":9,"matsim_modes":"bus","confidence":"high","unresolved_issue":"none"},"geometry":{"type":"Point","coordinates":[11.57679541,48.14768647]}},
    {"type":"Feature","properties":{"rank":75,"size":"eligible_not_shortlisted","eligible":true,"mp_id":"1404","name":"Josephsburg","address":"Josephburgstraße 41","epsg25832_easting":695876.4,"epsg25832_northing":5333692.923,"epsg31468_x":4472740.258,"epsg31468_y":5332096.868,"nearest_stop_distance_m":111.8,"distinct_line_count":2,"route_count":26,"matsim_modes":"subway","confidence":"medium","unresolved_issue":"none"},"geometry":{"type":"Point","coordinates":[11.63238003,48.12632870]}},
    {"type":"Feature","properties":{"rank":48,"size":"eligible_not_shortlisted","eligible":true,"mp_id":"405","name":"Elisabethplatz","address":"Arcisstraße 65","epsg25832_easting":691386.497,"epsg25832_northing":5336934.323,"epsg31468_x":4468380.385,"epsg31468_y":5335510.72,"nearest_stop_distance_m":133.3,"distinct_line_count":4,"route_count":6,"matsim_modes":"subway;tram","confidence":"medium","unresolved_issue":"LHM bus=Ja vs MATSim bus=false; LHM u_bahn=Nein vs MATSim subway=true"},"geometry":{"type":"Point","coordinates":[11.57356089,48.15682771]}},
    {"type":"Feature","properties":{"rank":27,"size":"eligible_not_shortlisted","eligible":true,"mp_id":"19","name":"Georg-Freundorfer-Platz","address":"Heimeranstraße 39 und Sandtnerstraße 3 - 5","epsg25832_easting":689000.162,"epsg25832_northing":5334288.467,"epsg31468_x":4465892.762,"epsg31468_y":5332960.014,"nearest_stop_distance_m":50.5,"distinct_line_count":7,"route_count":44,"matsim_modes":"bus;subway","confidence":"high","unresolved_issue":"none"},"geometry":{"type":"Point","coordinates":[11.54033043,48.13376020]}},
    {"type":"Feature","properties":{"rank":52,"size":"eligible_not_shortlisted","eligible":true,"mp_id":"58","name":"Freiham","address":"Hans-Stützle-Straße 11","epsg25832_easting":679357.194,"epsg25832_northing":5334607.609,"epsg31468_x":4456269.547,"epsg31468_y":5333654.903,"nearest_stop_distance_m":86.2,"distinct_line_count":4,"route_count":37,"matsim_modes":"bus;rail","confidence":"medium","unresolved_issue":"none"},"geometry":{"type":"Point","coordinates":[11.41097694,48.13941972]}},
    {"type":"Feature","properties":{"rank":12,"size":"small","eligible":true,"mp_id":"401","name":"Hohenzollernplatz","address":"Hohenzollernstraße 99","epsg25832_easting":690923.482,"epsg25832_northing":5337390.25,"epsg31468_x":4467935.522,"epsg31468_y":5335984.342,"nearest_stop_distance_m":41.1,"distinct_line_count":12,"route_count":48,"matsim_modes":"bus;tram","confidence":"medium","unresolved_issue":"LHM u_bahn=Ja vs MATSim subway=false"},"geometry":{"type":"Point","coordinates":[11.56754585,48.16106470]}},
    {"type":"Feature","properties":{"rank":4,"size":"large","eligible":true,"mp_id":"503","name":"Rosenheimer Platz","address":"Steinstraße 72","epsg25832_easting":693004.693,"epsg25832_northing":5333884.443,"epsg31468_x":4469878.356,"epsg31468_y":5332400.185,"nearest_stop_distance_m":16.7,"distinct_line_count":18,"route_count":315,"matsim_modes":"bus;rail;tram","confidence":"medium","unresolved_issue":"LHM bus=Nein vs MATSim bus=true"},"geometry":{"type":"Point","coordinates":[11.59391525,48.12892716]}},
    {"type":"Feature","properties":{"rank":null,"size":"not_selected","eligible":false,"mp_id":"1102","name":"Curt-Mezger-Platz","address":"Schleißheimerstraße 336","epsg25832_easting":690799.716,"epsg25832_northing":5339710.879,"epsg31468_x":4467902.387,"epsg31468_y":5338307.954,"nearest_stop_distance_m":70.9,"distinct_line_count":1,"route_count":6,"matsim_modes":"bus","confidence":"low","unresolved_issue":"fewer than two MATSim lines within 150 m"},"geometry":{"type":"Point","coordinates":[11.56692462,48.18195940]}},
    {"type":"Feature","properties":{"rank":20,"size":"alternative","eligible":true,"mp_id":"12","name":"Kolumbusplatz","address":"Kolumbusstraße 30","epsg25832_easting":691728.845,"epsg25832_northing":5332887.253,"epsg31468_x":4468564.658,"epsg31468_y":5331453.532,"nearest_stop_distance_m":36.7,"distinct_line_count":9,"route_count":70,"matsim_modes":"bus;subway","confidence":"medium","unresolved_issue":"embedded line break in name"},"geometry":{"type":"Point","coordinates":[11.57633781,48.12035009]}},
    {"type":"Feature","properties":{"rank":null,"size":"not_selected","eligible":false,"mp_id":"210","name":"Am Glockenbach","address":"Holzstraße 47-49","epsg25832_easting":691019.202,"epsg25832_northing":5333621.026,"epsg31468_x":4467884.186,"epsg31468_y":5332214.384,"nearest_stop_distance_m":239.4,"distinct_line_count":0,"route_count":0,"matsim_modes":"","confidence":"low","unresolved_issue":"no MATSim stops within 150 m; fewer than two MATSim lines within 150 m"},"geometry":{"type":"Point","coordinates":[11.56714081,48.12715850]}},
    {"type":"Feature","properties":{"rank":22,"size":"eligible_not_shortlisted","eligible":true,"mp_id":"403","name":"Petuelring","address":"Birnauerstraße 4","epsg25832_easting":690739.005,"epsg25832_northing":5338972.754,"epsg31468_x":4467812.925,"epsg31468_y":5337572.784,"nearest_stop_distance_m":34.4,"distinct_line_count":8,"route_count":58,"matsim_modes":"bus;subway;tram","confidence":"high","unresolved_issue":"none"},"geometry":{"type":"Point","coordinates":[11.56577741,48.17534345]}},
    {"type":"Feature","properties":{"rank":null,"size":"not_selected","eligible":false,"mp_id":"1402","name":"Hermann-Weinhauser-Straße","address":"Hermann-Weinhauser-Str","epsg25832_easting":695601.616,"epsg25832_northing":5334466.036,"epsg31468_x":4472495.841,"epsg31468_y":5332880.059,"nearest_stop_distance_m":237.5,"distinct_line_count":0,"route_count":0,"matsim_modes":"","confidence":"low","unresolved_issue":"no MATSim stops within 150 m; fewer than two MATSim lines within 150 m"},"geometry":{"type":"Point","coordinates":[11.62904612,48.13336154]}},
    {"type":"Feature","properties":{"rank":5,"size":"medium","eligible":true,"mp_id":"203","name":"Baaderstraße","address":"Baaderstraße 2","epsg25832_easting":692091.655,"epsg25832_northing":5334378.03,"epsg31468_x":4468985.296,"epsg31468_y":5332928.973,"nearest_stop_distance_m":87.4,"distinct_line_count":18,"route_count":315,"matsim_modes":"bus;rail;tram","confidence":"medium","unresolved_issue":"none"},"geometry":{"type":"Point","coordinates":[11.58187982,48.13363962]}},
    {"type":"Feature","properties":{"rank":8,"size":"medium","eligible":true,"mp_id":"402","name":"Scheidplatz","address":"Scheidplatz 1 a","epsg25832_easting":691345.635,"epsg25832_northing":5338475.384,"epsg31468_x":4468399.669,"epsg31468_y":5337052.144,"nearest_stop_distance_m":2.7,"distinct_line_count":14,"route_count":87,"matsim_modes":"bus;subway;tram","confidence":"high","unresolved_issue":"none"},"geometry":{"type":"Point","coordinates":[11.57370528,48.17069082]}},
    {"type":"Feature","properties":{"rank":10,"size":"small","eligible":true,"mp_id":"7","name":"Rindermarkt","address":"Rindermarkt ggü. 15; nordöstl. Ecke Brunnen","epsg25832_easting":691517.936,"epsg25832_northing":5334638.592,"epsg31468_x":4468422.194,"epsg31468_y":5333211.695,"nearest_stop_distance_m":71.9,"distinct_line_count":14,"route_count":298,"matsim_modes":"bus;rail","confidence":"medium","unresolved_issue":"LHM bus=Nein vs MATSim bus=true; LHM u_bahn=Ja vs MATSim subway=false"},"geometry":{"type":"Point","coordinates":[11.57429376,48.13615442]}},
    {"type":"Feature","properties":{"rank":54,"size":"eligible_not_shortlisted","eligible":true,"mp_id":"207","name":"Theresienwiese","address":"Bavariaring 11","epsg25832_easting":689810.143,"epsg25832_northing":5334538.555,"epsg31468_x":4466711.856,"epsg31468_y":5333178.325,"nearest_stop_distance_m":68.2,"distinct_line_count":4,"route_count":23,"matsim_modes":"subway","confidence":"medium","unresolved_issue":"LHM bus=Ja vs MATSim bus=false"},"geometry":{"type":"Point","coordinates":[11.55131754,48.13576695]}},
    {"type":"Feature","properties":{"rank":null,"size":"not_selected","eligible":false,"mp_id":"4","name":"Oberanger","address":"Klosterhofstraße 2 -17","epsg25832_easting":691233.178,"epsg25832_northing":5334406.904,"epsg31468_x":4468128.63,"epsg31468_y":5332991.294,"nearest_stop_distance_m":195.9,"distinct_line_count":0,"route_count":0,"matsim_modes":"","confidence":"low","unresolved_issue":"embedded line break in name; no MATSim stops within 150 m; fewer than two MATSim lines within 150 m"},"geometry":{"type":"Point","coordinates":[11.57036617,48.13415766]}},
    {"type":"Feature","properties":{"rank":null,"size":"not_selected","eligible":false,"mp_id":"209","name":"Kaiser-Ludwig-Platz","address":"Kaiser-Ludwig-Platz 8","epsg25832_easting":690139.639,"epsg25832_northing":5334066.992,"epsg31468_x":4467022.706,"epsg31468_y":5332694.287,"nearest_stop_distance_m":199.4,"distinct_line_count":0,"route_count":0,"matsim_modes":"","confidence":"low","unresolved_issue":"no MATSim stops within 150 m; fewer than two MATSim lines within 150 m"},"geometry":{"type":"Point","coordinates":[11.55553141,48.13143017]}},
    {"type":"Feature","properties":{"rank":null,"size":"not_selected","eligible":false,"mp_id":"22","name":"Schießstättstraße","address":"Schießstättstraße 8 - 10","epsg25832_easting":689385.465,"epsg25832_northing":5334645.423,"epsg31468_x":4466291.679,"epsg31468_y":5333301.667,"nearest_stop_distance_m":252.0,"distinct_line_count":0,"route_count":0,"matsim_modes":"","confidence":"low","unresolved_issue":"no MATSim stops within 150 m; fewer than two MATSim lines within 150 m; LHM tram=Ja vs MATSim tram=false"},"geometry":{"type":"Point","coordinates":[11.54566263,48.13685402]}},
    {"type":"Feature","properties":{"rank":13,"size":"alternative","eligible":true,"mp_id":"1","name":"Galeriestraße","address":"Galeriestraße 2 - 6","epsg25832_easting":691809.529,"epsg25832_northing":5335555.255,"epsg31468_x":4468749.297,"epsg31468_y":5334116.255,"nearest_stop_distance_m":68.6,"distinct_line_count":11,"route_count":107,"matsim_modes":"bus;subway","confidence":"high","unresolved_issue":"none"},"geometry":{"type":"Point","coordinates":[11.57862195,48.14430542]}},
    {"type":"Feature","properties":{"rank":59,"size":"eligible_not_shortlisted","eligible":true,"mp_id":"32","name":"Gertrud-Grunow-Straße","address":"Gertrud-Grunow-Straße 6 - 7","epsg25832_easting":692987.477,"epsg25832_northing":5339979.332,"epsg31468_x":4470098.869,"epsg31468_y":5338490.828,"nearest_stop_distance_m":70.6,"distinct_line_count":3,"route_count":34,"matsim_modes":"bus","confidence":"medium","unresolved_issue":"embedded line break in address"},"geometry":{"type":"Point","coordinates":[11.59644841,48.18371143]}},
    {"type":"Feature","properties":{"rank":21,"size":"eligible_not_shortlisted","eligible":true,"mp_id":"205","name":"Goetheplatz","address":"Waltherstraße 33 / Häberlstraße 6","epsg25832_easting":690355.533,"epsg25832_northing":5333819.312,"epsg31468_x":4467228.773,"epsg31468_y":5332438.386,"nearest_stop_distance_m":45.8,"distinct_line_count":9,"route_count":96,"matsim_modes":"bus;subway","confidence":"high","unresolved_issue":"none"},"geometry":{"type":"Point","coordinates":[11.55831944,48.12913949]}},
    {"type":"Feature","properties":{"rank":17,"size":"alternative","eligible":true,"mp_id":"37","name":"Messestadt West","address":"Willy-Brandt-Allee + Olof-Palme-Straße","epsg25832_easting":700112.556,"epsg25832_northing":5334611.405,"epsg31468_x":4477008.691,"epsg31468_y":5332849.434,"nearest_stop_distance_m":10.6,"distinct_line_count":10,"route_count":81,"matsim_modes":"bus;subway","confidence":"high","unresolved_issue":"none"},"geometry":{"type":"Point","coordinates":[11.68967662,48.13326571]}},
    {"type":"Feature","properties":{"rank":null,"size":"not_selected","eligible":false,"mp_id":"3","name":"Maximiliansplatz","address":"Maximiliansplatz 12a, 12b","epsg25832_easting":691435.54,"epsg25832_northing":5335337.622,"epsg31468_x":4468367.121,"epsg31468_y":5333913.38,"nearest_stop_distance_m":213.2,"distinct_line_count":0,"route_count":0,"matsim_modes":"","confidence":"low","unresolved_issue":"embedded line break in name; no MATSim stops within 150 m; fewer than two MATSim lines within 150 m; LHM u_bahn=Ja vs MATSim subway=false"},"geometry":{"type":"Point","coordinates":[11.57350159,48.14246201]}},
    {"type":"Feature","properties":{"rank":74,"size":"eligible_not_shortlisted","eligible":true,"mp_id":"310","name":"Luisenstraße","address":"Luisenstraße 68","epsg25832_easting":690998.927,"epsg25832_northing":5336420.469,"epsg31468_x":4467973.083,"epsg31468_y":5335012.39,"nearest_stop_distance_m":20.2,"distinct_line_count":2,"route_count":18,"matsim_modes":"bus","confidence":"medium","unresolved_issue":"invalid tram_vorhanden value ''"},"geometry":{"type":"Point","coordinates":[11.56812406,48.15232576]}},
    {"type":"Feature","properties":{"rank":null,"size":"not_selected","eligible":false,"mp_id":"1107","name":"Neuherbergstraße","address":"Neuherbergstraße 110","epsg25832_easting":690567.916,"epsg25832_northing":5342716.612,"epsg31468_x":4467788.074,"epsg31468_y":5341320.342,"nearest_stop_distance_m":167.1,"distinct_line_count":0,"route_count":0,"matsim_modes":"","confidence":"low","unresolved_issue":"no MATSim stops within 150 m; fewer than two MATSim lines within 150 m; LHM bus=Ja vs MATSim bus=false"},"geometry":{"type":"Point","coordinates":[11.56515836,48.20904406]}},
    {"type":"Feature","properties":{"rank":null,"size":"not_selected","eligible":false,"mp_id":"206","name":"Stephansplatz","address":"Thalkirchnerstraße 26","epsg25832_easting":690940.695,"epsg25832_northing":5334018.462,"epsg31468_x":4467821.235,"epsg31468_y":5332614.565,"nearest_stop_distance_m":25.5,"distinct_line_count":1,"route_count":6,"matsim_modes":"bus","confidence":"low","unresolved_issue":"fewer than two MATSim lines within 150 m"},"geometry":{"type":"Point","coordinates":[11.56626491,48.13075419]}},
    {"type":"Feature","properties":{"rank":45,"size":"eligible_not_shortlisted","eligible":true,"mp_id":"39","name":"Gronsdorf Bahnhof","address":"Drosselweg 43","epsg25832_easting":700782.626,"epsg25832_northing":5332927.242,"epsg31468_x":4477612.539,"epsg31468_y":5331140.576,"nearest_stop_distance_m":76.6,"distinct_line_count":5,"route_count":88,"matsim_modes":"bus;rail","confidence":"medium","unresolved_issue":"LHM bus=Nein vs MATSim bus=true"},"geometry":{"type":"Point","coordinates":[11.69787923,48.11791910]}},
    {"type":"Feature","properties":{"rank":73,"size":"eligible_not_shortlisted","eligible":true,"mp_id":"16","name":"Nestroystraße","address":"Nestroystraße 5","epsg25832_easting":688632.312,"epsg25832_northing":5332884.742,"epsg31468_x":4465470.475,"epsg31468_y":5331571.729,"nearest_stop_distance_m":45.4,"distinct_line_count":2,"route_count":17,"matsim_modes":"bus","confidence":"medium","unresolved_issue":"embedded line break in name"},"geometry":{"type":"Point","coordinates":[11.53476990,48.12125242]}},
    {"type":"Feature","properties":{"rank":null,"size":"not_selected","eligible":false,"mp_id":"307","name":"Schleißheimer Straße","address":"Schleißheimerstraße 47","epsg25832_easting":690468.717,"epsg25832_northing":5336628.979,"epsg31468_x":4467451.427,"epsg31468_y":5335241.414,"nearest_stop_distance_m":193.8,"distinct_line_count":0,"route_count":0,"matsim_modes":"","confidence":"low","unresolved_issue":"no MATSim stops within 150 m; fewer than two MATSim lines within 150 m"},"geometry":{"type":"Point","coordinates":[11.56109571,48.15435884]}},
    {"type":"Feature","properties":{"rank":null,"size":"not_selected","eligible":false,"mp_id":"25","name":"Schluderstraße","address":"Schluderstraße 20 ggü","epsg25832_easting":688088.797,"epsg25832_northing":5336073.798,"epsg31468_x":4465051.726,"epsg31468_y":5334779.486,"nearest_stop_distance_m":207.0,"distinct_line_count":0,"route_count":0,"matsim_modes":"","confidence":"low","unresolved_issue":"no MATSim stops within 150 m; fewer than two MATSim lines within 150 m; LHM bus=Ja vs MATSim bus=false"},"geometry":{"type":"Point","coordinates":[11.52888183,48.15007709]}},
    {"type":"Feature","properties":{"rank":39,"size":"eligible_not_shortlisted","eligible":true,"mp_id":"2504","name":"Agnes-Bernauer-Straße","address":"Friedenheimerstraße 27 (ggü)","epsg25832_easting":686796.133,"epsg25832_northing":5334854.78,"epsg31468_x":4463712.529,"epsg31468_y":5333611.823,"nearest_stop_distance_m":22.5,"distinct_line_count":6,"route_count":27,"matsim_modes":"bus;tram","confidence":"high","unresolved_issue":"none"},"geometry":{"type":"Point","coordinates":[11.51098433,48.13950112]}},
    {"type":"Feature","properties":{"rank":null,"size":"not_selected","eligible":false,"mp_id":"301","name":"St. Benno","address":"Kreittmayrstraße 31a","epsg25832_easting":689907.677,"epsg25832_northing":5336339.057,"epsg31468_x":4466879.524,"epsg31468_y":5334973.602,"nearest_stop_distance_m":223.5,"distinct_line_count":0,"route_count":0,"matsim_modes":"","confidence":"low","unresolved_issue":"no MATSim stops within 150 m; fewer than two MATSim lines within 150 m"},"geometry":{"type":"Point","coordinates":[11.55343023,48.15192080]}}
  ]
}
