{
  "type": "FeatureCollection",
  "name": "Fast Track pedestrian-zone candidate car links",
  "features": [
    {"type":"Feature","properties":{"measure":"Pedestrian zones (Excel row 6)","street_name":"Herzog-Wilhelm-Straße","matsim_link_id":"39774","from_node":"340075407","to_node":"18926938","length_m":11.600,"allowed_modes":"car","type":"residential","origid":"366231814","match_method":"both","confidence":"high","proposed_action":"visual_review_before_fast_track_car_mode_removal","midpoint_distance_m":0.087,"angle_difference_deg":0.862,"affected_activities":0},"geometry":{"type":"LineString","coordinates":[[11.5680094,48.1340129],[11.5679311,48.1341031]]}},
    {"type":"Feature","properties":{"measure":"Pedestrian zones (Excel row 6)","street_name":"Herzog-Wilhelm-Straße","matsim_link_id":"39775","from_node":"18926938","to_node":"340075407","length_m":11.600,"allowed_modes":"car","type":"residential","origid":"366231814","match_method":"both","confidence":"high","proposed_action":"visual_review_before_fast_track_car_mode_removal","midpoint_distance_m":0.087,"angle_difference_deg":0.862,"affected_activities":0},"geometry":{"type":"LineString","coordinates":[[11.5679311,48.1341031],[11.5680094,48.1340129]]}},
    {"type":"Feature","properties":{"measure":"Pedestrian zones (Excel row 6)","street_name":"Herzog-Wilhelm-Straße","matsim_link_id":"85662","from_node":"3607043222","to_node":"340075407","length_m":28.325,"allowed_modes":"car","type":"residential","origid":"4240775","match_method":"both","confidence":"high","proposed_action":"visual_review_before_fast_track_car_mode_removal","midpoint_distance_m":0.727,"angle_difference_deg":0.137,"affected_activities":0},"geometry":{"type":"LineString","coordinates":[[11.5681783,48.1337853],[11.5680094,48.1340129]]}},
    {"type":"Feature","properties":{"measure":"Pedestrian zones (Excel row 6)","street_name":"Herzog-Wilhelm-Straße","matsim_link_id":"148336","from_node":"361798","to_node":"18930997","length_m":31.588,"allowed_modes":"car","type":"residential","origid":"30749949","match_method":"both","confidence":"high","proposed_action":"visual_review_before_fast_track_car_mode_removal","midpoint_distance_m":0.000,"angle_difference_deg":0.000,"affected_activities":1},"geometry":{"type":"LineString","coordinates":[[11.5666852,48.1365555],[11.5667411,48.1362739]]}},
    {"type":"Feature","properties":{"measure":"Pedestrian zones (Excel row 6)","street_name":"Herzog-Wilhelm-Straße","matsim_link_id":"148337","from_node":"18930997","to_node":"18931612","length_m":178.116,"allowed_modes":"car","type":"residential","origid":"30749949","match_method":"both","confidence":"high","proposed_action":"visual_review_before_fast_track_car_mode_removal","midpoint_distance_m":0.450,"angle_difference_deg":0.294,"affected_activities":8},"geometry":{"type":"LineString","coordinates":[[11.5667411,48.1362739],[11.5674606,48.1347476]]}},
    {"type":"Feature","properties":{"measure":"Pedestrian zones (Excel row 6)","street_name":"Herzog-Wilhelm-Straße","matsim_link_id":"148338","from_node":"18931612","to_node":"18926938","length_m":79.797,"allowed_modes":"car","type":"residential","origid":"30749948","match_method":"both","confidence":"high","proposed_action":"visual_review_before_fast_track_car_mode_removal","midpoint_distance_m":1.182,"angle_difference_deg":0.729,"affected_activities":2},"geometry":{"type":"LineString","coordinates":[[11.5674606,48.1347476],[11.5679311,48.1341031]]}},
    {"type":"Feature","properties":{"measure":"Pedestrian zones (Excel row 6)","street_name":"Herzog-Wilhelm-Straße","matsim_link_id":"148339","from_node":"18926938","to_node":"18931612","length_m":79.797,"allowed_modes":"car","type":"residential","origid":"30749948","match_method":"both","confidence":"high","proposed_action":"visual_review_before_fast_track_car_mode_removal","midpoint_distance_m":1.182,"angle_difference_deg":0.729,"affected_activities":0},"geometry":{"type":"LineString","coordinates":[[11.5679311,48.1341031],[11.5674606,48.1347476]]}},
    {"type":"Feature","properties":{"measure":"Pedestrian zones (Excel row 6)","street_name":"Herzog-Wilhelm-Straße","matsim_link_id":"148354","from_node":"18931612","to_node":"18931000","length_m":31.047,"allowed_modes":"car","type":"residential","origid":"30749947","match_method":"both","confidence":"high","proposed_action":"visual_review_before_fast_track_car_mode_removal","midpoint_distance_m":4.013,"angle_difference_deg":1.704,"affected_activities":0},"geometry":{"type":"LineString","coordinates":[[11.5674606,48.1347476],[11.5670592,48.1346717]]}},
    {"type":"Feature","properties":{"measure":"Pedestrian zones (Excel row 6)","street_name":"Herzog-Wilhelm-Straße","matsim_link_id":"257668","from_node":"18930998","to_node":"18930997","length_m":29.127,"allowed_modes":"car","type":"residential","origid":"4592507","match_method":"both","confidence":"high","proposed_action":"visual_review_before_fast_track_car_mode_removal","midpoint_distance_m":5.036,"angle_difference_deg":16.076,"affected_activities":1},"geometry":{"type":"LineString","coordinates":[[11.5663856,48.1362561],[11.5667411,48.1362739]]}},
    {"type":"Feature","properties":{"measure":"Pedestrian zones (Excel row 6)","street_name":"Herzog-Wilhelm-Straße","matsim_link_id":"425785","from_node":"18931000","to_node":"18930998","length_m":184.174,"allowed_modes":"car","type":"residential","origid":"27747338","match_method":"both","confidence":"high","proposed_action":"visual_review_before_fast_track_car_mode_removal","midpoint_distance_m":3.797,"angle_difference_deg":2.396,"affected_activities":4},"geometry":{"type":"LineString","coordinates":[[11.5670592,48.1346717],[11.5663856,48.1362561]]}},
    {"type":"Feature","properties":{"measure":"Pedestrian zones (Excel row 6)","street_name":"Herzog-Wilhelm-Straße","matsim_link_id":"425786","from_node":"18930998","to_node":"185840092","length_m":35.558,"allowed_modes":"car","type":"residential","origid":"27747338","match_method":"both","confidence":"high","proposed_action":"visual_review_before_fast_track_car_mode_removal","midpoint_distance_m":0.000,"angle_difference_deg":0.000,"affected_activities":4},"geometry":{"type":"LineString","coordinates":[[11.5663856,48.1362561],[11.5663077,48.1365716]]}},
    {"type":"Feature","properties":{"measure":"Pedestrian zones (Excel row 6)","street_name":"Kreuzstraße","matsim_link_id":"493302","from_node":"18931612","to_node":"18931608","length_m":186.722,"allowed_modes":"car","type":"residential","origid":"3927541","match_method":"both","confidence":"high","proposed_action":"visual_review_before_fast_track_car_mode_removal","midpoint_distance_m":0.570,"angle_difference_deg":0.902,"affected_activities":12},"geometry":{"type":"LineString","coordinates":[[11.5674606,48.1347476],[11.5683986,48.1362947]]}}
  ]
}
